ONEWEB-0045             
1 45151U 20008W   24359.82177134  .00000560  00000+0  15433-2 0  9990
2 45151  87.8903 128.5201 0001352 100.7234 259.4046 13.11418281239712
ONEWEB-0047             
1 45152U 20008X   24359.83610009 -.00000134  00000+0 -42025-3 0  9992
2 45152  87.8904 143.7037 0001475  97.1966 262.9329 13.10375917237568
ONEWEB-0048             
1 45153U 20008Y   24359.83111780 -.00000418  00000+0 -12331-2 0  9996
2 45153  87.8904 143.7243 0001512  96.4441 263.6859 13.10375432237175
ONEWEB-0049             
1 45154U 20008Z   24359.83277294 -.00000288  00000+0 -86190-3 0  9990
2 45154  87.8910 143.7109 0001987  95.2909 264.8445 13.10374938237394
ONEWEB-0051             
1 45155U 20008AA  24359.82009423  .00000583  00000+0  16096-2 0  9990
2 45155  87.8903 128.5630 0001411 109.1089 251.0191 13.11417760240395
ONEWEB-0052             
1 45156U 20008AB  24359.82945056 -.00000566  00000+0 -16579-2 0  9991
2 45156  87.8900 143.6684 0001976  89.9022 270.2332 13.10375003237307
ONEWEB-0053             
1 45157U 20008AC  24359.88755878 -.00000396  00000+0 -11721-2 0  9994
2 45157  87.8898 143.7140 0001260  85.7279 274.3992 13.10371553237286
ONEWEB-0054             
1 45158U 20008AD  24359.84606915  .00000373  00000+0  10310-2 0  9994
2 45158  87.8901 143.7000 0001507  99.1990 260.9308 13.10375023237390
